UTMN 2 (RS27S)          
1 57203U 23091AP  26061.83295524  .00016175  00000+0  57152-3 0  9997
2 57203  97.5218 127.7375 0009952  97.6347 262.6024 15.29235227148276
KUZGTU 1 (RS47S)        
1 57217U 23091AV  26061.85698140  .00015911  00000+0  59685-3 0  9995
2 57217  97.5201 125.3909 0012953 111.3688 248.8935 15.27236904148130
SONATE-2                
1 59112U 24043Q   26061.36903506  .00042719  00000+0  74240-3 0  9990
2 59112  97.5384 205.9504 0007845 231.8475 128.2070 15.50669853111297
MESAT1                  
1 60209U 24125G   26061.54902947  .00046157  00000+0  74116-3 0  9990
2 60209  97.2465 277.3216 0011180 251.3742 108.6298 15.52835342 92963
OOV-CUBE (TUBSAT-30)    
1 60240U 24128F   26061.77349682  .00004271  00000+0  32804-3 0  9993
2 60240  61.9933 236.4815 0055105 111.0594 249.6402 15.02184323 90129
COLIBRI-S (RS67S)       
1 61746U 24199M   26061.81150000  .00025810  00000+0  58452-3 0  9991
2 61746  97.3174 294.9408 0008132 315.5285  44.5309 15.43064104120989
HORS 3 (RS81S)          
1 61753U 24199U   26061.79479440  .00035931  00000+0  69120-3 0  9997
2 61753  97.3143 295.9825 0006278 323.6639  36.4184 15.47810941121062
HORS 4 (RS82S)          
1 61754U 24199V   26061.81034462  .00043942  00000+0  76807-3 0  9993
2 61754  97.3121 296.6687 0006005 320.5052  39.5762 15.50513365121112
HORIZON (RS59S)         
1 61757U 24199Y   26061.79543403  .00130473  00000+0  11589-2 0  9994
2 61757  97.3091 300.3013 0003301 297.3057  62.7868 15.68122510121346
ARCTICSAT 1 (RS74S)     
1 61762U 24199AD  26061.78972239  .00097847  00000+0  10231-2 0  9992
2 61762  97.3110 299.8603 0003686 293.5937  66.4935 15.64137554121315
SIT-2086                
1 61764U 24199AF  26061.80280556  .00027860  00000+0  54769-3 0  9994
2 61764  97.3139 296.7288 0006356 302.3367  57.7267 15.47232213117951
RUZAEVKA 390 (RS44S)    
1 61766U 24199AH  26061.62672404  .00844467  34052-3  16494-2 0  9993
2 61766  97.2881 303.4007 0001705 153.2138 206.9229 16.00278810118391
HYPERVIEW 1G (RS66S)    
1 61772U 24199AP  26061.81755778  .00072586  00000+0  10030-2 0  9994
2 61772  97.3105 297.7157 0007205 317.0332  43.0360 15.56885987118032
ALTAIR (RS65S)          
1 61779U 24199AW  26061.79117476  .00014861  00000+0  44122-3 0  9997
2 61779  97.3196 291.9023 0012740 335.1886  24.8743 15.34809569120787
ASRTU-1 (AO-123)        
1 61781U 24199AY  26061.76663620  .00011374  00000+0  34822-3 0  9996
2 61781  97.3170 291.4172 0013476 337.1140  22.9500 15.33892773117609
TUSUR GO (RS78S)        
1 61782U 24199AZ  26061.81043550  .00148307  00000+0  12951-2 0  9992
2 61782  97.3045 299.3268 0004405 316.1914  43.8998 15.68481704118141
SAMSAT-IONOSPHERE (RS7*)
1 61784U 24199BB  26061.82398508  .00041362  00000+0  76497-3 0  9990
2 61784  97.3131 295.7946 0009273 323.3723  36.6893 15.48888512121052
RTU MIREA 1 (RS51S)     
1 61785U 24199BC  26061.83022574  .00048497  00000+0  83998-3 0  9999
2 61785  97.3130 296.2258 0008988 319.2335  40.8243 15.50725565117938
TEVEL2-4                
1 63213U 25052D   26061.69961235  .00022254  00000+0  75407-3 0  9995
2 63213  97.4040 318.1473 0004459 108.3721 251.8005 15.30565789 53808
TEVEL2-5                
1 63214U 25052E   26061.64464484  .00022308  00000+0  75865-3 0  9993
2 63214  97.4038 318.0667 0004444 108.2519 251.9206 15.30447348 53790
TEVEL2-6                
1 63215U 25052F   26061.65428043  .00022713  00000+0  77334-3 0  9999
2 63215  97.4041 318.0620 0004521 109.9512 250.2216 15.30405404 53791
TEVEL2-1                
1 63217U 25052H   26061.65061916  .00021697  00000+0  74835-3 0  9996
2 63217  97.4016 317.7976 0004281 118.7771 241.3900 15.29995139 53780
TEVEL2-3                
1 63218U 25052J   26061.64835751  .00022118  00000+0  76198-3 0  9995
2 63218  97.4019 317.8059 0004297 119.8285 240.3383 15.30030470 53780
TEVEL2-2                
1 63219U 25052K   26061.45508269  .00022969  00000+0  79209-3 0  9996
2 63219  97.4017 317.6037 0004235 120.2136 239.9524 15.29988876 53754
TEVEL2-9                
1 63237U 25052AD  26061.69733037  .00019983  00000+0  72566-3 0  9996
2 63237  97.4078 317.4266 0007313 144.2958 215.8772 15.28311423 53745
TEVEL2-7                
1 63238U 25052AE  26061.26227880  .00020443  00000+0  74741-3 0  9994
2 63238  97.4081 316.9483 0007453 146.3242 213.8472 15.28082137 53673
TEVEL2-8                
1 63239U 25052AF  26061.66209870  .00020138  00000+0  73648-3 0  9994
2 63239  97.4078 317.3269 0007368 145.3570 214.8151 15.28075546 53733
HADES-ICM               
1 63492U 25052BN  26061.68675609  .00134694  00000+0  20045-2 0  9999
2 63492  97.3975 321.8901 0008264 124.6306 235.5728 15.54629520 54057
INNOSAT 16 (RS92S7)     
1 64878U 25155C   26061.82295902  .00008587  00000+0  35638-3 0  9998
2 64878  97.4449  29.4680 0010114 189.3748 170.7302 15.24047999 64468
GEOSCAN 6 (RS92S6)      
1 64879U 25155D   26061.83835120  .00015127  00000+0  55965-3 0  9995
2 64879  97.4448  30.2280 0007758 176.9249 183.2039 15.27754913 64518
GEOSCAN 1 (RS92S1)      
1 64880U 25155E   26061.81052638  .00015746  00000+0  57529-3 0  9995
2 64880  97.4446  30.2698 0007640 177.0541 183.0745 15.28160063 64518
239ALFEROV (RS61S)      
1 64881U 25155F   26061.77750537  .00020321  00000+0  70903-3 0  9990
2 64881  97.4451  30.4944 0007330 174.3821 185.7503 15.29616588 64529
GEOSCAN 2 (RS92S2)      
1 64890U 25155Q   26061.82423531  .00015188  00000+0  54994-3 0  9994
2 64890  97.4445  30.3912 0007589 162.5505 197.5997 15.28463794 64526
GEOSCAN 5 (RS92S5)      
1 64891U 25155R   26061.85457365  .00020808  00000+0  71864-3 0  9990
2 64891  97.4445  30.6669 0005933 177.0771 183.0505 15.29953778 64540
GEOSCAN 4 (RS92S4)      
1 64892U 25155S   26061.84741596  .00021537  00000+0  74131-3 0  9992
2 64892  97.4449  30.6830 0005930 177.2119 182.9155 15.30056662 64547
GEOSCAN 3 (RS92S3)      
1 64893U 25155T   26061.83113461  .00024405  00000+0  80745-3 0  9991
2 64893  97.4441  30.8449 0005536 176.4398 183.6883 15.31315756 64550
INNOSAT 3 (RS92S0)      
1 64894U 25155U   26061.82066959  .00041642  00000+0  11829-2 0  9998
2 64894  97.4411  31.4350 0005076 165.4495 194.6896 15.36053363 64599
